[{"OBJECT_NAME":"SHIJIAN-6 02B (SJ-6 02B)","OBJECT_ID":"2006-046B","EPOCH":"2026-03-15T07:08:41.777664","MEAN_MOTION":15.01030367,"ECCENTRICITY":0.00137644,"INCLINATION":97.7079,"RA_OF_ASC_NODE":103.9877,"ARG_OF_PERICENTER":25.9808,"MEAN_ANOMALY":334.2104,"EPHEMERIS_TYPE":0,"CLASSIFICATION_TYPE":"U","NORAD_CAT_ID":29506,"ELEMENT_SET_NO":999,"REV_AT_EPOCH":5665,"BSTAR":0.00022511277,"MEAN_MOTION_DOT":2.82e-5,"MEAN_MOTION_DDOT":0},{"OBJECT_NAME":"FGRST (GLAST)","OBJECT_ID":"2008-029A","EPOCH":"2026-03-14T20:35:15.451008","MEAN_MOTION":15.23378177,"ECCENTRICITY":0.00077768,"INCLINATION":25.5813,"RA_OF_ASC_NODE":139.1902,"ARG_OF_PERICENTER":294.3571,"MEAN_ANOMALY":65.6155,"EPHEMERIS_TYPE":0,"CLASSIFICATION_TYPE":"U","NORAD_CAT_ID":33053,"ELEMENT_SET_NO":999,"REV_AT_EPOCH":98143,"BSTAR":0.00018087156,"MEAN_MOTION_DOT":4.765e-5,"MEAN_MOTION_DDOT":0},{"OBJECT_NAME":"SDO","OBJECT_ID":"2010-005A","EPOCH":"2026-03-15T01:08:24.902016","MEAN_MOTION":1.00275126,"ECCENTRICITY":1.152e-5,"INCLINATION":34.452,"RA_OF_ASC_NODE":87.7669,"ARG_OF_PERICENTER":94.8146,"MEAN_ANOMALY":265.3359,"EPHEMERIS_TYPE":0,"CLASSIFICATION_TYPE":"U","NORAD_CAT_ID":36395,"ELEMENT_SET_NO":999,"REV_AT_EPOCH":5912,"BSTAR":0,"MEAN_MOTION_DOT":-5.2e-7,"MEAN_MOTION_DDOT":0},{"OBJECT_NAME":"CRYOSAT 2","OBJECT_ID":"2010-013A","EPOCH":"2026-03-15T06:45:05.567616","MEAN_MOTION":14.51902351,"ECCENTRICITY":0.00021371,"INCLINATION":92.0232,"RA_OF_ASC_NODE":254.5425,"ARG_OF_PERICENTER":92.4373,"MEAN_ANOMALY":267.7078,"EPHEMERIS_TYPE":0,"CLASSIFICATION_TYPE":"U","NORAD_CAT_ID":36508,"ELEMENT_SET_NO":999,"REV_AT_EPOCH":84445,"BSTAR":6.8612536e-5,"MEAN_MOTION_DOT":2.79e-6,"MEAN_MOTION_DDOT":0},{"OBJECT_NAME":"X-SAT","OBJECT_ID":"2011-015C","EPOCH":"2026-03-15T06:57:06.012288","MEAN_MOTION":14.25175698,"ECCENTRICITY":0.00127924,"INCLINATION":98.3434,"RA_OF_ASC_NODE":55.8282,"ARG_OF_PERICENTER":258.7272,"MEAN_ANOMALY":101.2471,"EPHEMERIS_TYPE":0,"CLASSIFICATION_TYPE":"U","NORAD_CAT_ID":37389,"ELEMENT_SET_NO":999,"REV_AT_EPOCH":77430,"BSTAR":0.00016983197,"MEAN_MOTION_DOT":3.58e-6,"MEAN_MOTION_DDOT":0},{"OBJECT_NAME":"GCOM-W1 (SHIZUKU)","OBJECT_ID":"2012-025A","EPOCH":"2026-03-15T02:00:10.130976","MEAN_MOTION":14.57107244,"ECCENTRICITY":0.00014028,"INCLINATION":98.206,"RA_OF_ASC_NODE":16.0635,"ARG_OF_PERICENTER":72.9123,"MEAN_ANOMALY":297.6735,"EPHEMERIS_TYPE":0,"CLASSIFICATION_TYPE":"U","NORAD_CAT_ID":38337,"ELEMENT_SET_NO":999,"REV_AT_EPOCH":73533,"BSTAR":0.00016295518,"MEAN_MOTION_DOT":6.89e-6,"MEAN_MOTION_DDOT":0},{"OBJECT_NAME":"NUSTAR","OBJECT_ID":"2012-031A","EPOCH":"2026-03-15T08:00:01.999872","MEAN_MOTION":15.07801954,"ECCENTRICITY":0.00079548,"INCLINATION":6.0281,"RA_OF_ASC_NODE":17.6221,"ARG_OF_PERICENTER":163.268,"MEAN_ANOMALY":106.6931,"EPHEMERIS_TYPE":0,"CLASSIFICATION_TYPE":"U","NORAD_CAT_ID":38358,"ELEMENT_SET_NO":999,"REV_AT_EPOCH":130,"BSTAR":0.0014213951,"MEAN_MOTION_DOT":0.00023344,"MEAN_MOTION_DDOT":0},{"OBJECT_NAME":"NEOSSAT","OBJECT_ID":"2013-009D","EPOCH":"2026-03-15T06:30:16.056288","MEAN_MOTION":14.35788809,"ECCENTRICITY":0.00113791,"INCLINATION":98.4145,"RA_OF_ASC_NODE":256.543,"ARG_OF_PERICENTER":161.0521,"MEAN_ANOMALY":199.1091,"EPHEMERIS_TYPE":0,"CLASSIFICATION_TYPE":"U","NORAD_CAT_ID":39089,"ELEMENT_SET_NO":999,"REV_AT_EPOCH":68326,"BSTAR":8.7334184e-5,"MEAN_MOTION_DOT":2.1e-6,"MEAN_MOTION_DDOT":0},{"OBJECT_NAME":"BRITE-AUSTRIA","OBJECT_ID":"2013-009F","EPOCH":"2026-03-15T05:55:02.118720","MEAN_MOTION":14.36499751,"ECCENTRICITY":0.00106971,"INCLINATION":98.3961,"RA_OF_ASC_NODE":256.0151,"ARG_OF_PERICENTER":155.0328,"MEAN_ANOMALY":205.1378,"EPHEMERIS_TYPE":0,"CLASSIFICATION_TYPE":"U","NORAD_CAT_ID":39091,"ELEMENT_SET_NO":999,"REV_AT_EPOCH":68356,"BSTAR":9.7052211e-5,"MEAN_MOTION_DOT":2.42e-6,"MEAN_MOTION_DDOT":0},{"OBJECT_NAME":"IRIS","OBJECT_ID":"2013-033A","EPOCH":"2026-03-15T06:50:10.489632","MEAN_MOTION":14.85664904,"ECCENTRICITY":0.00231975,"INCLINATION":97.9397,"RA_OF_ASC_NODE":273.8277,"ARG_OF_PERICENTER":266.1328,"MEAN_ANOMALY":93.7235,"EPHEMERIS_TYPE":0,"CLASSIFICATION_TYPE":"U","NORAD_CAT_ID":39197,"ELEMENT_SET_NO":999,"REV_AT_EPOCH":68643,"BSTAR":0.00017071867,"MEAN_MOTION_DOT":1.43e-5,"MEAN_MOTION_DDOT":0},{"OBJECT_NAME":"HISAKI (SPRINT-A)","OBJECT_ID":"2013-049A","EPOCH":"2026-03-15T00:07:20.528544","MEAN_MOTION":13.55531318,"ECCENTRICITY":0.01365632,"INCLINATION":29.7218,"RA_OF_ASC_NODE":338.8362,"ARG_OF_PERICENTER":333.1788,"MEAN_ANOMALY":26.1775,"EPHEMERIS_TYPE":0,"CLASSIFICATION_TYPE":"U","NORAD_CAT_ID":39253,"ELEMENT_SET_NO":999,"REV_AT_EPOCH":61863,"BSTAR":9.0078035e-5,"MEAN_MOTION_DOT":1.31e-6,"MEAN_MOTION_DDOT":0},{"OBJECT_NAME":"CASSIOPE","OBJECT_ID":"2013-055A","EPOCH":"2026-03-15T06:49:48.331488","MEAN_MOTION":15.19237321,"ECCENTRICITY":0.03134431,"INCLINATION":80.9196,"RA_OF_ASC_NODE":180.2159,"ARG_OF_PERICENTER":17.5476,"MEAN_ANOMALY":343.6289,"EPHEMERIS_TYPE":0,"CLASSIFICATION_TYPE":"U","NORAD_CAT_ID":39265,"ELEMENT_SET_NO":999,"REV_AT_EPOCH":65338,"BSTAR":0.00050226782,"MEAN_MOTION_DOT":0.0004197,"MEAN_MOTION_DDOT":-4.3376e-7},{"OBJECT_NAME":"STSAT-3","OBJECT_ID":"2013-066G","EPOCH":"2026-03-15T06:35:43.932192","MEAN_MOTION":15.02140626,"ECCENTRICITY":0.00109177,"INCLINATION":97.6068,"RA_OF_ASC_NODE":45.7891,"ARG_OF_PERICENTER":354.6734,"MEAN_ANOMALY":5.4373,"EPHEMERIS_TYPE":0,"CLASSIFICATION_TYPE":"U","NORAD_CAT_ID":39422,"ELEMENT_SET_NO":999,"REV_AT_EPOCH":67010,"BSTAR":0.00048200574,"MEAN_MOTION_DOT":6.29e-5,"MEAN_MOTION_DDOT":0},{"OBJECT_NAME":"SWARM B","OBJECT_ID":"2013-067A","EPOCH":"2026-03-15T05:40:10.749792","MEAN_MOTION":15.27918715,"ECCENTRICITY":0.00036255,"INCLINATION":87.7493,"RA_OF_ASC_NODE":10.8094,"ARG_OF_PERICENTER":83.4395,"MEAN_ANOMALY":276.7266,"EPHEMERIS_TYPE":0,"CLASSIFICATION_TYPE":"U","NORAD_CAT_ID":39451,"ELEMENT_SET_NO":999,"REV_AT_EPOCH":66889,"BSTAR":0.00019232292,"MEAN_MOTION_DOT":5.271e-5,"MEAN_MOTION_DDOT":0},{"OBJECT_NAME":"SWARM A","OBJECT_ID":"2013-067B","EPOCH":"2026-03-15T06:42:18.696384","MEAN_MOTION":15.48891927,"ECCENTRICITY":0.00031768,"INCLINATION":87.3283,"RA_OF_ASC_NODE":91.0857,"ARG_OF_PERICENTER":94.9764,"MEAN_ANOMALY":265.1859,"EPHEMERIS_TYPE":0,"CLASSIFICATION_TYPE":"U","NORAD_CAT_ID":39452,"ELEMENT_SET_NO":999,"REV_AT_EPOCH":69170,"BSTAR":0.00023504969,"MEAN_MOTION_DOT":0.00012706,"MEAN_MOTION_DDOT":0},{"OBJECT_NAME":"SWARM C","OBJECT_ID":"2013-067C","EPOCH":"2026-03-15T06:42:09.180288","MEAN_MOTION":15.48893386,"ECCENTRICITY":0.00031724,"INCLINATION":87.3281,"RA_OF_ASC_NODE":89.667,"ARG_OF_PERICENTER":95.3532,"MEAN_ANOMALY":264.809,"EPHEMERIS_TYPE":0,"CLASSIFICATION_TYPE":"U","NORAD_CAT_ID":39453,"ELEMENT_SET_NO":999,"REV_AT_EPOCH":69166,"BSTAR":0.00023866055,"MEAN_MOTION_DOT":0.00012902,"MEAN_MOTION_DDOT":0},{"OBJECT_NAME":"BRITE-CA1 (TORONTO)","OBJECT_ID":"2014-033L","EPOCH":"2026-03-15T06:27:43.825536","MEAN_MOTION":14.72482058,"ECCENTRICITY":0.00781603,"INCLINATION":97.9576,"RA_OF_ASC_NODE":205.0219,"ARG_OF_PERICENTER":216.8255,"MEAN_ANOMALY":142.757,"EPHEMERIS_TYPE":0,"CLASSIFICATION_TYPE":"U","NORAD_CAT_ID":40020,"ELEMENT_SET_NO":999,"REV_AT_EPOCH":62839,"BSTAR":0.00022593825,"MEAN_MOTION_DOT":1.451e-5,"MEAN_MOTION_DDOT":0}]
