SHIJIAN-6 02B (SJ-6 02B)
1 29506U 06046B   26074.29770576  .00002820  00000+0  22511-3 0  9995
2 29506  97.7079 103.9877 0013764  25.9808 334.2104 15.01030367 56656
FGRST (GLAST)           
1 33053U 08029A   26073.85781772  .00004765  00000+0  18087-3 0  9994
2 33053  25.5813 139.1902 0007776 294.3571  65.6155 15.23378177981430
SDO                     
1 36395U 10005A   26074.04751044 -.00000052  00000+0  00000+0 0  9992
2 36395  34.4520  87.7669 0000115  94.8146 265.3359  1.00275126 59122
CRYOSAT 2               
1 36508U 10013A   26074.28131444  .00000279  00000+0  68613-4 0  9998
2 36508  92.0232 254.5425 0002137  92.4373 267.7078 14.51902351844453
X-SAT                   
1 37389U 11015C   26074.28965292  .00000358  00000+0  16983-3 0  9995
2 37389  98.3434  55.8282 0012792 258.7272 101.2471 14.25175698774302
GCOM-W1 (SHIZUKU)       
1 38337U 12025A   26074.08345059  .00000689  00000+0  16296-3 0  9996
2 38337  98.2060  16.0635 0001402  72.9123 297.6735 14.57107244735338
NUSTAR                  
1 38358U 12031A   26074.33335648  .00023344  00000+0  14214-2 0  9997
2 38358   6.0281  17.6221 0007954 163.2680 106.6931 15.07801954  1306
NEOSSAT                 
1 39089U 13009D   26074.27101917  .00000210  00000+0  87334-4 0  9990
2 39089  98.4145 256.5430 0011379 161.0521 199.1091 14.35788809683262
BRITE-AUSTRIA           
1 39091U 13009F   26074.24655230  .00000242  00000+0  97052-4 0  9995
2 39091  98.3961 256.0151 0010697 155.0328 205.1378 14.36499751683560
IRIS                    
1 39197U 13033A   26074.28484363  .00001430  00000+0  17072-3 0  9993
2 39197  97.9397 273.8277 0023197 266.1328  93.7235 14.85664904686434
HISAKI (SPRINT-A)       
1 39253U 13049A   26074.00509871  .00000131  00000+0  90078-4 0  9990
2 39253  29.7218 338.8362 0136563 333.1788  26.1775 13.55531318618630
CASSIOPE                
1 39265U 13055A   26074.28458717  .00041970 -43376-6  50227-3 0  9990
2 39265  80.9196 180.2159 0313443  17.5476 343.6289 15.19237321653388
STSAT-3                 
1 39422U 13066G   26074.27481403  .00006290  00000+0  48201-3 0  9998
2 39422  97.6068  45.7891 0010917 354.6734   5.4373 15.02140626670105
SWARM B                 
1 39451U 13067A   26074.23623553  .00005271  00000+0  19232-3 0  9991
2 39451  87.7493  10.8094 0003625  83.4395 276.7266 15.27918715668891
SWARM A                 
1 39452U 13067B   26074.27938306  .00012706  00000+0  23505-3 0  9990
2 39452  87.3283  91.0857 0003176  94.9764 265.1859 15.48891927691705
SWARM C                 
1 39453U 13067C   26074.27927292  .00012902  00000+0  23866-3 0  9991
2 39453  87.3281  89.6670 0003172  95.3532 264.8090 15.48893386691663
BRITE-CA1 (TORONTO)     
1 40020U 14033L   26074.26925724  .00001451  00000+0  22594-3 0  9998
2 40020  97.9576 205.0219 0078160 216.8255 142.7570 14.72482058628396
